#dP2024  4  2  0  0  0.00000000      96 __u+U IGS20 FIT  IAC
## 2308 172800.00000000   900.00000000 60402 0.0000000000000
+  120   C06C07C08C09C10C11C12C13C14C16C19C20C21C22C23C24C25
+        C26C27C28C29C30C32C33C34C35C36C37C38C39C40C41C42C43
+        C44C45C46E02E03E04E05E07E08E09E10E11E12E13E14E15E18
+        E19E21E24E25E26E27E30E31E33E34E36G01G02G03G04G05G06
+        G07G08G09G10G11G12G13G14G15G16G17G18G19G20G21G22G23
+        G24G25G26G27G28G29G30G31G32J02J03J04R01R02R03R04R05
+        R07R08R09R11R12R13R14R15R16R17R18R19R20R21R22R24R25
+        R26  0  0  0  0  0  0  0  0  0  0  0  0  0  0  0  0
++        10  7  8  9  9  8  8  9  8  9  7  8  8  8  7  7  7
++         8  7  7  7  7  8  7  7  8  7  7  9 10  9  8  8  8
++         7  9  7  7  7  7  8  7  8  7  6  6  7  7  7  8  7
++         7  7  8  7  7  7  7  7  7  7  7  7  7  7  8  7  7
++         6  6  7  7  8  7  7  6  6  7  7  7  7  6  7  7  7
++         6  7  7  7  7  6  7  7  7  7  8  7  7  6  7  8  7
++         6  7  8  7  8  7  8  8  8  7  7  8  7  7  6  7  7
++         7  0  0  0  0  0  0  0  0  0  0  0  0  0  0  0  0
%c M  cc GPS ccc cccc cccc cccc cccc ccccc ccccc ccccc ccccc
%c cc cc ccc ccc cccc cccc cccc cccc ccccc ccccc ccccc ccccc
%f  0.0000000  0.000000000  0.00000000000  0.000000000000000
%f  0.0000000  0.000000000  0.00000000000  0.000000000000000
%i    0    0    0    0      0      0      0      0         0
%i    0    0    0    0      0      0      0      0         0
/* INFORMATION & ANALYSIS CENTER (IAC)      ULTRA-RAPID DATA
/* S/V CLOCKS ARE ALIGNED TO GNSS TIME                      
/* G:C1WC2W R:C1PC2P E:C1XC5X C:C2IC6I J:C1CC2S             
/* PCV:IGS20_2290 OL/AL:FES2004  NONE     YN ORB:CoN CLK:CoN
*  2024 04 02  0 30  0.00000000
PC06 -16549.720807  29351.962044  25232.709979    315.399744
PC07  -7242.225878  39447.541034  13433.789261   -859.566826
PC08  -3295.440078  21060.001870 -36357.967501     11.440441
PC09 -10193.322299  28277.471716  29773.023432   -703.761942
PC10  -1021.129714  41934.034131   6949.115746     19.397858
PC11  21534.917115  -6913.996233 -16280.112122    490.586336
PC12  10877.727366  11014.149230 -23184.731684   -224.379024
PC13   4743.746192  25075.388017 -33325.095557    428.699111
PC14  16772.813186   2657.724734  22174.503802    544.870645
PC16 -21401.909696  28888.686997  22030.262922   -432.472799
PC19 -13589.480639   8173.155183 -22935.116782   -916.110252
PC20 -17180.177700 -11207.635254 -18886.875002   -317.269872
PC21  10625.357891  25658.081240   2935.706771   -961.978917
PC22  -2010.991486  24042.039205 -14049.635623    -53.533513
PC23   9056.475412 -14445.325912 -22091.746814   -775.518262
PC24  26041.838996   8777.537740   4766.224166    946.563916
PC25  24478.436071  -4795.831675 -12505.363193    364.335676
PC26  12827.329249  16061.404453  18839.978133   -271.266549
PC27  -3591.210244 -18002.657920  20999.124785    293.112134
PC28  11355.396472 -23349.450085  10234.559322    223.883204
PC29 -21311.572003  15413.365001   9311.862598    262.586823
PC30 -17423.555100  -2813.460874  21598.961860    -48.261750
PC32 -10745.137947 -25587.849485  -2796.960138   -593.855279
PC33  13644.411228  -8113.611591  22957.725137   -965.480819
PC34  18318.471151   1233.337235 -21038.325157    403.134521
PC35 -10574.845398  23774.360104 -10046.117075    397.014012
PC36 -24743.496779   4042.702101  12282.113704     38.012644
PC37 -12173.911604 -16409.181549 -19011.651282   -952.088708
PC38 -11850.385107  19299.046105 -35519.744757    146.432572
PC39 -25027.495193  29485.002346  16591.701095     -7.802362
PC40 -11990.997908  36983.636272  16653.218142    -63.513457
PC41   2608.991235 -23558.222862  14771.952792   -916.611863
PC42  17169.483856  12869.170467  17909.725819   -444.382633
PC43  21517.952321 -14638.833966 -10119.563639     66.416412
PC44   4296.340291  18023.403203 -20874.891037    431.201673
PC45  -9055.609991  14306.895240  22179.640738    -78.410072
PC46 -26341.048206  -8362.469572  -4024.014294   -136.527895
PE02 -20295.589831    514.950999  21536.040253    116.061780
PE03 -17942.540273  11882.157320 -20325.826975   -104.371532
PE04  10780.020284 -27160.163706   4724.503820   -363.689976
PE05 -14477.309608 -10088.443327 -23755.055392   4734.646914
PE07   2261.736723  26494.414264  13027.782009   -112.228379
PE08 -11168.316656  26870.608206  -5454.596348   -248.362290
PE09  -2108.441973 -26511.351054 -12971.001865   -392.014944
PE10   6091.525231 -17122.972042  23357.782704   -613.904680
PE11  -6065.065836 -14966.334563  24794.745215   3099.191334
PE12  16064.662934 -16582.802211  18534.238167   -975.233640
PE13   5372.598588  15094.590863 -24887.050176    -20.809327
PE14   -497.313707 -22034.851717   8139.313260     83.373216
PE15 -16557.057672  16436.971660 -18203.655415    -94.660128
PE18   3030.162479  29156.947919 -13954.159481    503.295206
PE19  18022.071934  -9548.791521  21466.148690   -321.214756
PE21  23529.724860  16162.975220  -7831.078700   -587.056078
PE24 -12741.504486 -24223.178753 -11320.910761   -684.237556
PE25 -23449.967287 -16461.700183   7445.094897      2.840630
PE26  24203.267472   4668.226022 -16391.720746    413.701320
PE27  13108.759307  24134.098924  11022.583114   -313.785857
PE30  -5164.099004  17677.527511  23154.597885   -155.781779
PE31   4906.944081 -17786.052962 -23147.110731    -19.754941
PE33  28553.505972  -7800.271613    425.062221      9.844834
PE34 -28431.500062   8178.780843   -960.825453   -103.316811
PE36 -23761.035822  -4972.388998  16926.098097   -207.532074
PG01   8779.844284  12610.286774 -22061.371007    177.339185
PG02  -2473.272763  16053.770578 -20473.560642   -460.442868
PG03   9237.038859  21202.951930 -13318.553717    286.973204
PG04   -524.262874  24909.838138   9028.932737    329.029773
PG05   3596.139779 -15794.895177  20855.203816   -167.600103
PG06  25937.921099  -5270.501490  -2790.209357    341.378378
PG07  18116.467493   8326.937052  18271.893370    -97.875154
PG08  -5630.523605  25711.471737    297.665234     95.536048
PG09   9627.951781  16459.262091  18387.961484    145.471358
PG10 -21323.238375  -7531.956326 -13979.265738     -4.543144
PG11  21768.134217 -11914.570680   9425.435283   -624.493382
PG12  -6551.101770 -21763.295291 -14079.418465   -492.731371
PG13  13630.466024 -21555.415956   6777.069211    639.228084
PG14  21785.255453  10753.095157 -10939.345909    365.730742
PG15   2291.175844 -26346.203768    -98.905681    143.960958
PG16  -9694.588134  11622.369794  21463.224978   -326.987762
PG17  14568.290048   3022.831874 -21588.317610    711.267794
PG18 -18658.519321  -7275.282982  17553.137981   -586.902214
PG19  16701.614368  -6489.671640 -19665.296098    462.317411
PG20  14285.622784  -8272.532948  20840.223451    381.728101
PG21  -7541.274019  16710.235901 -18368.191862    128.960454
PG22  19475.084421   4332.469270 -16963.150198      6.818583
PG23 -20997.184995 -16126.537425  -3154.705555    190.942280
PG24   3867.874347 -17421.398906 -19967.720596   -454.241569
PG25 -15833.457002 -20685.121595  -6199.563215    492.792286
PG26 -18771.741931   2518.498541  18606.397513    172.150461
PG27 -12677.883772  20154.879174  11018.881269    -15.960482
PG28 -25611.629377   4284.575255  -5583.225160   -186.914530
PG29  -6425.812700 -18801.154721  17518.971088   -603.158073
PG30  24791.702959    521.978484  10015.864661   -411.317619
PG31 -24507.545724   9759.404984   4373.472856   -228.028258
PG32 -15453.199804    570.077967 -21363.341046   -617.408844
PJ02 -26071.143660  22531.747138  29382.724957     -3.569276
PJ03 -35737.419214  20841.088363  -3542.846423     -0.124956
PJ04 -19363.740088  28491.365724 -19223.302852     50.546912
PR01 -10871.508283   1409.887923 -23024.401084     81.322318
PR02  -5444.485946  18381.635165 -16740.235904    -22.669102
PR03   3218.441840  25260.294328   -800.762227     97.461753
PR04   9503.392590  18205.428126  15158.791339    230.180290
PR05  10931.005342   1387.180851  23022.090787    129.327565
PR07  -3542.404087 -25286.933646     58.029971     79.287977
PR08  -9732.854998 -18009.332782 -15172.819581    -74.934926
PR09  11513.779632  -7192.138142 -21596.125946    178.683552
PR11 -20076.363202 -12566.742329  -9440.137061     29.301270
PR12 -23165.305348  -4018.492365   9931.582601     38.504311
PR13 -13701.826220   5467.840183  20792.680647    -45.871766
PR14   6495.042326  13317.404036  20777.024439     26.307154
PR15  20833.065087  12374.612449   7995.853240     80.853700
PR16  23253.839358   4144.438078  -9669.754881     24.467694
PR17  -5449.474312  15497.758913 -19521.010549     74.280061
PR18   9520.952176   5784.205109 -22940.086257    135.075869
PR19  19294.544650  -4973.613388 -15931.764518   -271.554702
PR20  19434.468585 -16019.258483   4206.010375   -110.649400
PR21   5529.193857 -15352.588910  19595.256952    -89.349517
PR22 -10480.778081  -5632.225000  22584.761522    115.197134
PR24 -18417.537502  17013.219648  -4702.794947    -50.148094
PR25   5692.458306 -15385.280853  19531.050397    -26.468208
PR26  -9579.682829 -18734.935322 -14374.284646    -27.147022
EOF
